      2.10          N: GNSS NAV DATA                        RINEX VERSION / TYPE
fic2rin                                 04/07/2020 00:17:34 PGM / RUN BY / DATE
                                                            END OF HEADER
16 20  4  6  1 59 44.0-1.433151774108e-04-4.320099833421e-12 0.000000000000e+00
    0.000000000000e+00-5.865625000000e+01 4.304465012531e-09-2.344927100998e-01
   -2.877786755562e-06 1.154047518503e-02 7.111579179764e-06 5.153738183975e+03
    9.358400000000e+04 3.166496753693e-08 1.939799656853e+00 1.452863216400e-07
    9.788808075948e-01 2.525312500000e+02 6.221907097919e-01-8.234985877359e-09
   -4.503759028213e-10 1.000000000000e+00 2.100000000000e+03 0.000000000000e+00
    2.400000000000e+00 0.000000000000e+00-1.071020960808e-08 0.000000000000e+00
    8.745000000000e+04 4.000000000000e+00
20 20  4  6  1 59 44.0 5.278359167278e-04 0.000000000000e+00 0.000000000000e+00
    1.300000000000e+01-8.521875000000e+01 5.625234313588e-09 2.477111998663e+00
   -4.315748810768e-06 5.024608806707e-03 3.093853592873e-06 5.153634740829e+03
    9.358400000000e+04 5.960464477539e-08-1.422409902522e+00 8.568167686462e-08
    9.331219033356e-01 3.069375000000e+02 2.635913138625e+00-8.815724353162e-09
   -4.335894893140e-10 1.000000000000e+00 2.100000000000e+03 0.000000000000e+00
    2.400000000000e+00 0.000000000000e+00-8.847564458847e-09 1.300000000000e+01
    8.745000000000e+04 4.000000000000e+00
 9 20  4  6  1 59 44.0-1.919036731124e-04-7.844391802792e-12 0.000000000000e+00
    0.000000000000e+00-9.031250000000e+00 4.277678182466e-09-7.542465151777e-01
   -5.755573511124e-07 1.614966313355e-03 1.457333564758e-05 5.153771152496e+03
    9.358400000000e+04-5.215406417847e-08-2.589830120477e-01 9.126961231232e-08
    9.531502085892e-01 9.350000000000e+01 1.799032142121e+00-7.908186550570e-09
    6.928860043404e-11 1.000000000000e+00 2.100000000000e+03 0.000000000000e+00
    2.400000000000e+00 0.000000000000e+00 1.396983861923e-09 0.000000000000e+00
    8.868000000000e+04 4.000000000000e+00
 4 20  4  6  2 44 32.0-7.229577749968e-05-5.229594535194e-12 0.000000000000e+00
    4.400000000000e+01-1.218750000000e+00 4.133386457851e-09-1.714074238209e+00
   -1.788139343262e-07 6.514026317745e-04 1.371465623379e-05 5.153709114075e+03
    9.627200000000e+04-8.009374141693e-08-2.115222688544e-01-8.381903171539e-08
    9.604645254198e-01 1.157187500000e+02-2.642755073357e+00-7.742465361903e-09
    2.035799084918e-11 1.000000000000e+00 2.100000000000e+03 0.000000000000e+00
    2.400000000000e+00 0.000000000000e+00-4.190951585770e-09 3.000000000000e+02
    8.916000000000e+04 4.000000000000e+00
16 20  4  6  3 59 44.0-1.433468423784e-04-4.320099833421e-12 0.000000000000e+00
    2.000000000000e+00-6.953125000000e+01 4.295178911442e-09 8.157053450818e-01
   -3.499910235405e-06 1.153890544083e-02 6.891787052155e-06 5.153734937668e+03
    1.007840000000e+05-1.806765794754e-07 1.939741352253e+00 1.173466444016e-07
    9.788774604382e-01 2.582187500000e+02 6.221328850290e-01-8.146053601544e-09
   -5.878816304868e-10 1.000000000000e+00 2.100000000000e+03 0.000000000000e+00
    2.400000000000e+00 0.000000000000e+00-1.071020960808e-08 2.000000000000e+00
    9.360000000000e+04 4.000000000000e+00
 9 20  4  6  3 59 44.0-1.919604837894e-04-7.844391802792e-12 0.000000000000e+00
    1.000000000000e+00-1.015625000000e+01 4.372682139763e-09 2.954252961865e-01
   -6.370246410370e-07 1.612169900909e-03 1.355633139610e-05 5.153765695572e+03
    1.007840000000e+05-5.215406417847e-08-2.590393051354e-01-5.960464477539e-08
    9.531502714947e-01 1.141875000000e+02 1.799481647108e+00-7.908543708304e-09
   -5.250218692682e-11 1.000000000000e+00 2.100000000000e+03 0.000000000000e+00
    2.400000000000e+00 0.000000000000e+00 1.396983861923e-09 1.000000000000e+00
    9.360000000000e+04 4.000000000000e+00
20 20  4  6  3 59 44.0 5.278354510665e-04 0.000000000000e+00 0.000000000000e+00
    1.400000000000e+01-8.765625000000e+01 5.624162840386e-09-2.755871350269e+00
   -4.459172487259e-06 5.024282610975e-03 3.073364496231e-06 5.153635345459e+03
    1.007840000000e+05-1.117587089539e-08-1.422473374149e+00 1.043081283569e-07
    9.331188502256e-01 3.075312500000e+02 2.635923664321e+00-8.822510350112e-09
   -4.168030758068e-10 1.000000000000e+00 2.100000000000e+03 0.000000000000e+00
    2.400000000000e+00 0.000000000000e+00-8.847564458847e-09 1.400000000000e+01
    9.360000000000e+04 4.000000000000e+00
 1 20  4  6  4  0  0.0-3.494750708342e-04-1.136868377216e-11 0.000000000000e+00
    7.000000000000e+00 7.718750000000e+01 4.517331022112e-09-2.204920945888e+00
    3.857538104057e-06 9.625098668039e-03 4.483386874199e-06 5.153627048492e+03
    1.008000000000e+05 1.713633537292e-07-2.331466434798e+00-5.401670932770e-08
    9.794354217824e-01 3.023125000000e+02 7.591190271659e-01-8.173554747077e-09
    5.621662736246e-10 1.000000000000e+00 2.100000000000e+03 0.000000000000e+00
    2.400000000000e+00 0.000000000000e+00 5.587935447693e-09 7.000000000000e+00
    9.360000000000e+04 4.000000000000e+00
 5 20  4  6  4  0  0.0-1.036096364260e-05-6.821210263297e-13 0.000000000000e+00
    1.300000000000e+01-1.017500000000e+02 5.228789228631e-09 7.111797795610e-01
   -4.993751645088e-06 5.804014974274e-03 5.004927515984e-06 5.153631944656e+03
    1.008000000000e+05 2.048909664154e-08-1.321412812022e+00 8.754432201385e-08
    9.518225416751e-01 2.771250000000e+02 7.853220082710e-01-8.745721437260e-09
   -5.835957376764e-10 1.000000000000e+00 2.100000000000e+03 0.000000000000e+00
    2.400000000000e+00 0.000000000000e+00-1.117587089539e-08 1.300000000000e+01
    9.360000000000e+04 4.000000000000e+00
 3 20  4  6  4  0  0.0-1.377123408020e-04-1.068656274583e-11 0.000000000000e+00
    2.100000000000e+01-9.175000000000e+01 4.716625037793e-09 3.012231117597e+00
   -4.874542355537e-06 2.715390641242e-03 5.163252353668e-06 5.153582944870e+03
    1.008000000000e+05-1.080334186554e-07-1.290221406078e+00-7.264316082001e-08
    9.649391280793e-01 2.792187500000e+02 6.916030961364e-01-8.318203629427e-09
   -4.871631494435e-10 1.000000000000e+00 2.100000000000e+03 0.000000000000e+00
    2.400000000000e+00 0.000000000000e+00 1.862645149231e-09 2.100000000000e+01
    9.360000000000e+04 4.000000000000e+00
 2 20  4  6  4  0  0.0-4.346207715571e-04-6.480149750132e-12 0.000000000000e+00
    7.700000000000e+01 9.840625000000e+01 4.918061999880e-09-1.954916059586e+00
    5.472451448441e-06 1.977161411196e-02 4.382804036140e-06 5.153669284821e+03
    1.008000000000e+05 2.980232238770e-07-2.406697125761e+00 2.142041921616e-07
    9.585037953361e-01 2.909375000000e+02-1.639067704332e+00-8.292488272565e-09
    6.146684605515e-10 1.000000000000e+00 2.100000000000e+03 0.000000000000e+00
    2.400000000000e+00 0.000000000000e+00-1.769512891769e-08 7.700000000000e+01
    9.360000000000e+04 4.000000000000e+00
24 20  4  6  4  0  0.0-1.131370663643e-05-4.547473508865e-13 0.000000000000e+00
    3.000000000000e+00 8.046875000000e+01 5.247361430809e-09-2.005809913097e+00
    4.164874553680e-06 9.602610487491e-03 6.129965186119e-06 5.153653617859e+03
    1.008000000000e+05 2.793967723846e-08 7.436272498941e-01-1.508742570877e-07
    9.368584886937e-01 2.490937500000e+02 6.661247276144e-01-8.434637050775e-09
    5.950247851707e-10 1.000000000000e+00 2.100000000000e+03 0.000000000000e+00
    2.400000000000e+00 0.000000000000e+00 2.793967723846e-09 3.000000000000e+00
    9.360000000000e+04 4.000000000000e+00
22 20  4  6  4  0  0.0-7.850877009332e-04 4.547473508865e-13 0.000000000000e+00
    8.000000000000e+00-8.368750000000e+01 5.682379551060e-09-9.660688577885e-01
   -4.353001713753e-06 7.218148792163e-03 4.179775714874e-06 5.153532712936e+03
    1.008000000000e+05-1.396983861923e-07-1.374814101269e+00-1.210719347000e-07
    9.298362654013e-01 2.809375000000e+02-1.191448534762e+00-9.003946479083e-09
   -3.528718413857e-10 1.000000000000e+00 2.100000000000e+03 0.000000000000e+00
    2.400000000000e+00 0.000000000000e+00-1.816079020500e-08 8.000000000000e+00
    9.360000000000e+04 4.000000000000e+00
14 20  4  6  4  0  0.0-2.146372571588e-05 2.501110429876e-12 0.000000000000e+00
    8.000000000000e+00-9.343750000000e+00 4.341966574622e-09-3.123096427331e-01
   -4.023313522339e-07 1.120239694137e-02 1.318752765656e-05 5.153635368347e+03
    1.008000000000e+05-5.029141902924e-08-1.636175578195e-01 1.192092895508e-07
    9.609663048581e-01 1.280000000000e+02-1.923864666606e+00-8.077122158844e-09
    6.250260348431e-11 1.000000000000e+00 2.100000000000e+03 0.000000000000e+00
    2.400000000000e+00 0.000000000000e+00-9.778887033463e-09 8.000000000000e+00
    9.360000000000e+04 4.000000000000e+00
 7 20  4  6  4  0  0.0-2.522501163185e-04-8.526512829121e-12 0.000000000000e+00
    5.200000000000e+01 7.578125000000e+01 4.889489381144e-09-2.959462515550e+00
    3.756955265999e-06 1.354835007805e-02 5.435198545456e-06 5.153674726486e+03
    1.008000000000e+05 2.235174179077e-08 8.149227043902e-01-1.434236764908e-07
    9.535354885462e-01 2.710937500000e+02-2.407927491068e+00-8.207484731826e-09
    4.771627328860e-10 1.000000000000e+00 2.100000000000e+03 0.000000000000e+00
    2.400000000000e+00 0.000000000000e+00-1.117587089539e-08 5.200000000000e+01
    9.360000000000e+04 4.000000000000e+00
10 20  4  6  4  0  0.0-3.011948429048e-04-1.216449163621e-11 0.000000000000e+00
    6.900000000000e+01-1.020000000000e+02 4.850916345851e-09 1.962022352392e+00
   -5.260109901428e-06 5.507655674592e-03 4.939734935760e-06 5.153665121078e+03
    1.008000000000e+05-6.705522537231e-08-1.293289566610e+00 1.676380634308e-08
    9.648966829741e-01 2.908437500000e+02-2.635738628591e+00-8.433208419838e-09
   -5.096640866978e-10 1.000000000000e+00 2.100000000000e+03 0.000000000000e+00
    2.400000000000e+00 0.000000000000e+00 1.862645149231e-09 6.900000000000e+01
    9.360000000000e+04 4.000000000000e+00
